{"type": "FeatureCollection", "features": [ {"type": "Feature", "properties": {"norad_id": 33917, "name": "COSMOS 2251 DEB", "group": "cosmos-2251-debris", "lat": 55.22564410088759, "lon": 131.6604539988583, "alt_km": 1200.4488753613723, "timestamp": "2025-12-21T20:41:08.348950+00:00", "meta": {"OBJECT_NAME": "COSMOS 2251 DEB", "OBJECT_ID": "1993-036DW", "EPOCH": "2025-12-21T01:05:42.517536", "MEAN_MOTION": 13.69375159, "ECCENTRICITY": 0.03312637, "INCLINATION": 74.1072, "RA_OF_ASC_NODE": 108.7746, "ARG_OF_PERICENTER": 207.9279, "MEAN_ANOMALY": 150.3716, "EPHEMERIS_TYPE": 0, "CLASSIFICATION_TYPE": "U", "NORAD_CAT_ID": 33917, "ELEMENT_SET_NO": 999, "REV_AT_EPOCH": 83847, "BSTAR": 0.00060207041, "MEAN_MOTION_DOT": 7.47e-06, "MEAN_MOTION_DDOT": 0}, "tle": {"line1": "1 33917U 93036DW  25355.04563099  .00000747  00000+0  60207-3 0  9995", "line2": "2 33917  74.1072 108.7746 0331263 207.9279 150.3716 13.69375159838475"}}, "geometry": {"type": "Point", "coordinates": [131.6604539988583, 55.22564410088759]}}, {"type": "Feature", "properties": {"norad_id": 33920, "name": "COSMOS 2251 DEB", "group": "cosmos-2251-debris", "lat": -1.8097229593031616, "lon": 101.60928096476002, "alt_km": 707.8435227303025, "timestamp": "2025-12-21T20:41:08.348959+00:00", "meta": {"OBJECT_NAME": "COSMOS 2251 DEB", "OBJECT_ID": "1993-036DZ", "EPOCH": "2025-12-21T05:02:03.425568", "MEAN_MOTION": 14.58395783, "ECCENTRICITY": 0.0037911, "INCLINATION": 74.0619, "RA_OF_ASC_NODE": 282.3307, "ARG_OF_PERICENTER": 287.7031, "MEAN_ANOMALY": 71.9996, "EPHEMERIS_TYPE": 0, "CLASSIFICATION_TYPE": "U", "NORAD_CAT_ID": 33920, "ELEMENT_SET_NO": 999, "REV_AT_EPOCH": 88238, "BSTAR": 0.0012071, "MEAN_MOTION_DOT": 5.624e-05, "MEAN_MOTION_DDOT": 0}, "tle": {"line1": "1 33920U 93036DZ  25355.20976187  .00005624  00000+0  12071-2 0  9997", "line2": "2 33920  74.0619 282.3307 0037911 287.7031  71.9996 14.58395783882383"}}, "geometry": {"type": "Point", "coordinates": [101.60928096476002, -1.8097229593031616]}}, {"type": "Feature", "properties": {"norad_id": 33922, "name": "COSMOS 2251 DEB", "group": "cosmos-2251-debris", "lat": 33.129974540598454, "lon": 141.4187722205072, "alt_km": 739.6351608177984, "timestamp": "2025-12-21T20:41:08.348968+00:00", "meta": {"OBJECT_NAME": "COSMOS 2251 DEB", "OBJECT_ID": "1993-036EB", "EPOCH": "2025-12-21T09:04:21.473184", "MEAN_MOTION": 14.49536189, "ECCENTRICITY": 0.00231543, "INCLINATION": 74.0468, "RA_OF_ASC_NODE": 131.5663, "ARG_OF_PERICENTER": 241.1297, "MEAN_ANOMALY": 149.493, "EPHEMERIS_TYPE": 0, "CLASSIFICATION_TYPE": "U", "NORAD_CAT_ID": 33922, "ELEMENT_SET_NO": 999, "REV_AT_EPOCH": 88703, "BSTAR": 0.0003820559, "MEAN_MOTION_DOT": 1.443e-05, "MEAN_MOTION_DDOT": 0}, "tle": {"line1": "1 33922U 93036EB  25355.37802631  .00001443  00000+0  38206-3 0  9993", "line2": "2 33922  74.0468 131.5663 0023154 241.1297 149.4930 14.49536189887032"}}, "geometry": {"type": "Point", "coordinates": [141.4187722205072, 33.129974540598454]}}, {"type": "Feature", "properties": {"norad_id": 33924, "name": "COSMOS 2251 DEB", "group": "cosmos-2251-debris", "lat": -48.65476222674872, "lon": -123.60468020404994, "alt_km": 792.5883709750451, "timestamp": "2025-12-21T20:41:08.348978+00:00", "meta": {"OBJECT_NAME": "COSMOS 2251 DEB", "OBJECT_ID": "1993-036ED", "EPOCH": "2025-12-21T10:15:25.225920", "MEAN_MOTION": 13.5023566, "ECCENTRICITY": 0.04038786, "INCLINATION": 73.9133, "RA_OF_ASC_NODE": 256.2369, "ARG_OF_PERICENTER": 290.1573, "MEAN_ANOMALY": 65.6523, "EPHEMERIS_TYPE": 0, "CLASSIFICATION_TYPE": "U", "NORAD_CAT_ID": 33924, "ELEMENT_SET_NO": 999, "REV_AT_EPOCH": 82856, "BSTAR": 0.00041031711, "MEAN_MOTION_DOT": 4.11e-06, "MEAN_MOTION_DDOT": 0}, "tle": {"line1": "1 33924U 93036ED  25355.42737530  .00000411  00000+0  41032-3 0  9991", "line2": "2 33924  73.9133 256.2369 0403878 290.1573  65.6523 13.50235660828566"}}, "geometry": {"type": "Point", "coordinates": [-123.60468020404994, -48.65476222674872]}}, {"type": "Feature", "properties": {"norad_id": 33928, "name": "COSMOS 2251 DEB", "group": "cosmos-2251-debris", "lat": 10.551735529602567, "lon": -147.68859809892191, "alt_km": 776.2260360810151, "timestamp": "2025-12-21T20:41:08.348987+00:00", "meta": {"OBJECT_NAME": "COSMOS 2251 DEB", "OBJECT_ID": "1993-036EH", "EPOCH": "2025-12-21T13:16:11.468064", "MEAN_MOTION": 14.47419477, "ECCENTRICITY": 0.00619018, "INCLINATION": 73.9254, "RA_OF_ASC_NODE": 35.9718, "ARG_OF_PERICENTER": 328.2671, "MEAN_ANOMALY": 31.4761, "EPHEMERIS_TYPE": 0, "CLASSIFICATION_TYPE": "U", "NORAD_CAT_ID": 33928, "ELEMENT_SET_NO": 999, "REV_AT_EPOCH": 88772, "BSTAR": 0.00020013058, "MEAN_MOTION_DOT": 7.22e-06, "MEAN_MOTION_DDOT": 0}, "tle": {"line1": "1 33928U 93036EH  25355.55291051  .00000722  00000+0  20013-3 0  9993", "line2": "2 33928  73.9254  35.9718 0061901 328.2671  31.4761 14.47419477887728"}}, "geometry": {"type": "Point", "coordinates": [-147.68859809892191, 10.551735529602567]}}, {"type": "Feature", "properties": {"norad_id": 33932, "name": "COSMOS 2251 DEB", "group": "cosmos-2251-debris", "lat": 21.955849349452798, "lon": -54.27975515543097, "alt_km": 736.7346636433822, "timestamp": "2025-12-21T20:41:08.348996+00:00", "meta": {"OBJECT_NAME": "COSMOS 2251 DEB", "OBJECT_ID": "1993-036EM", "EPOCH": "2025-12-21T13:54:19.418688", "MEAN_MOTION": 14.38781896, "ECCENTRICITY": 0.00357844, "INCLINATION": 74.0342, "RA_OF_ASC_NODE": 299.6138, "ARG_OF_PERICENTER": 13.6493, "MEAN_ANOMALY": 346.562, "EPHEMERIS_TYPE": 0, "CLASSIFICATION_TYPE": "U", "NORAD_CAT_ID": 33932, "ELEMENT_SET_NO": 999, "REV_AT_EPOCH": 88125, "BSTAR": 0.00037521838, "MEAN_MOTION_DOT": 1.135e-05, "MEAN_MOTION_DDOT": 0}, "tle": {"line1": "1 33932U 93036EM  25355.57939142  .00001135  00000+0  37522-3 0  9992", "line2": "2 33932  74.0342 299.6138 0035784  13.6493 346.5620 14.38781896881258"}}, "geometry": {"type": "Point", "coordinates": [-54.27975515543097, 21.955849349452798]}}, {"type": "Feature", "properties": {"norad_id": 33933, "name": "COSMOS 2251 DEB", "group": "cosmos-2251-debris", "lat": 54.85296735725302, "lon": 67.41253084697193, "alt_km": 724.3472348819396, "timestamp": "2025-12-21T20:41:08.349005+00:00", "meta": {"OBJECT_NAME": "COSMOS 2251 DEB", "OBJECT_ID": "1993-036EN", "EPOCH": "2025-12-21T05:20:39.760224", "MEAN_MOTION": 14.33500996, "ECCENTRICITY": 0.0070915, "INCLINATION": 74.089, "RA_OF_ASC_NODE": 44.6759, "ARG_OF_PERICENTER": 50.5471, "MEAN_ANOMALY": 310.1926, "EPHEMERIS_TYPE": 0, "CLASSIFICATION_TYPE": "U", "NORAD_CAT_ID": 33933, "ELEMENT_SET_NO": 999, "REV_AT_EPOCH": 87906, "BSTAR": 0.00020936, "MEAN_MOTION_DOT": 5.7e-06, "MEAN_MOTION_DDOT": 0}, "tle": {"line1": "1 33933U 93036EN  25355.22268241  .00000570  00000+0  20936-3 0  9993", "line2": "2 33933  74.0890  44.6759 0070915  50.5471 310.1926 14.33500996879062"}}, "geometry": {"type": "Point", "coordinates": [67.41253084697193, 54.85296735725302]}}, {"type": "Feature", "properties": {"norad_id": 33934, "name": "COSMOS 2251 DEB", "group": "cosmos-2251-debris", "lat": -59.37219632387643, "lon": 54.28190767073163, "alt_km": 702.5182727457523, "timestamp": "2025-12-21T20:41:08.349013+00:00", "meta": {"OBJECT_NAME": "COSMOS 2251 DEB", "OBJECT_ID": "1993-036EP", "EPOCH": "2025-12-21T14:23:41.637408", "MEAN_MOTION": 14.59174734, "ECCENTRICITY": 0.00153178, "INCLINATION": 74.0382, "RA_OF_ASC_NODE": 83.6904, "ARG_OF_PERICENTER": 207.5177, "MEAN_ANOMALY": 152.5179, "EPHEMERIS_TYPE": 0, "CLASSIFICATION_TYPE": "U", "NORAD_CAT_ID": 33934, "ELEMENT_SET_NO": 999, "REV_AT_EPOCH": 88868, "BSTAR": 0.00065136816, "MEAN_MOTION_DOT": 3.047e-05, "MEAN_MOTION_DDOT": 0}, "tle": {"line1": "1 33934U 93036EP  25355.59978747  .00003047  00000+0  65137-3 0  9997", "line2": "2 33934  74.0382  83.6904 0015317 207.5177 152.5179 14.59174734888687"}}, "geometry": {"type": "Point", "coordinates": [54.28190767073163, -59.37219632387643]}}, {"type": "Feature", "properties": {"norad_id": 33936, "name": "COSMOS 2251 DEB", "group": "cosmos-2251-debris", "lat": -72.39145079757006, "lon": -95.39404578269239, "alt_km": 698.7493006591176, "timestamp": "2025-12-21T20:41:08.349022+00:00", "meta": {"OBJECT_NAME": "COSMOS 2251 DEB", "OBJECT_ID": "1993-036ER", "EPOCH": "2025-12-21T09:37:26.044032", "MEAN_MOTION": 14.60319178, "ECCENTRICITY": 0.00269462, "INCLINATION": 74.0177, "RA_OF_ASC_NODE": 20.9297, "ARG_OF_PERICENTER": 174.364, "MEAN_ANOMALY": 185.7834, "EPHEMERIS_TYPE": 0, "CLASSIFICATION_TYPE": "U", "NORAD_CAT_ID": 33936, "ELEMENT_SET_NO": 999, "REV_AT_EPOCH": 89016, "BSTAR": 0.00047396662, "MEAN_MOTION_DOT": 2.272e-05, "MEAN_MOTION_DDOT": 0}, "tle": {"line1": "1 33936U 93036ER  25355.40099588  .00002272  00000+0  47397-3 0  9993", "line2": "2 33936  74.0177  20.9297 0026946 174.3640 185.7834 14.60319178890163"}}, "geometry": {"type": "Point", "coordinates": [-95.39404578269239, -72.39145079757006]}}, {"type": "Feature", "properties": {"norad_id": 33938, "name": "COSMOS 2251 DEB", "group": "cosmos-2251-debris", "lat": 31.775528588846058, "lon": -159.6471058966156, "alt_km": 740.1813179801529, "timestamp": "2025-12-21T20:41:08.349032+00:00", "meta": {"OBJECT_NAME": "COSMOS 2251 DEB", "OBJECT_ID": "1993-036ET", "EPOCH": "2025-12-21T14:08:57.782688", "MEAN_MOTION": 14.46817922, "ECCENTRICITY": 0.0016812, "INCLINATION": 74.0437, "RA_OF_ASC_NODE": 190.6531, "ARG_OF_PERICENTER": 272.049, "MEAN_ANOMALY": 143.1473, "EPHEMERIS_TYPE": 0, "CLASSIFICATION_TYPE": "U", "NORAD_CAT_ID": 33938, "ELEMENT_SET_NO": 999, "REV_AT_EPOCH": 88528, "BSTAR": 0.00032736497, "MEAN_MOTION_DOT": 1.161e-05, "MEAN_MOTION_DDOT": 0}, "tle": {"line1": "1 33938U 93036ET  25355.58955767  .00001161  00000+0  32736-3 0  9991", "line2": "2 33938  74.0437 190.6531 0016812 272.0490 143.1473 14.46817922885288"}}, "geometry": {"type": "Point", "coordinates": [-159.6471058966156, 31.775528588846058]}}]}